NORAD_CAT_ID,OBJECT_NAME,OBJECT_TYPE,EPOCH,MEAN_MOTION,ECCENTRICITY,INCLINATION,RA_OF_ASC_NODE,ARG_OF_PERICENTER,MEAN_ANOMALY,BSTAR,MEAN_MOTION_DOT,MEAN_MOTION_DDOT,TLE_LINE0,TLE_LINE1,TLE_LINE2,SEMIMAJOR_AXIS,PERIOD,APOGEE,PERIGEE,DECAYED
53278.0,STARLINK-4180,PAYLOAD,2023-04-11 11:15:28,15.08842037,0.0001081,53.215,277.0991,97.7675,262.3439,0.00013533,1.867e-05,0.0,0 STARLINK-4180,1 53278U 22086AN  23101.46907821  .00001867  00000-0  13533-3 0  9997,2 53278  53.2150 277.0991 0001081  97.7675 262.3439 15.08842037 40516,6917.874,95.437,540.487,538.991,0.0
53278.0,STARLINK-4180,PAYLOAD,2023-04-11 14:26:14,15.0884065,0.0001067,53.215,276.504,96.4882,263.6231,0.00012157,1.648e-05,0.0,0 STARLINK-4180,1 53278U 22086AN  23101.60155965  .00001648  00000-0  12157-3 0  9995,2 53278  53.2150 276.5040 0001067  96.4882 263.6231 15.08840650 40709,6917.878,95.438,540.482,539.005,0.0
53278.0,STARLINK-4180,PAYLOAD,2023-04-12 04:44:42,15.08842919,0.0001064,53.2152,273.8274,90.7912,269.3202,7.7737e-05,9.5e-06,0.0,0 STARLINK-4180,1 53278U 22086AN  23102.19771844  .00000950  00000-0  77737-4 0  9991,2 53278  53.2152 273.8274 0001064  90.7912 269.3202 15.08842919 40798,6917.871,95.437,540.473,539.0,0.0
53278.0,STARLINK-4180,PAYLOAD,2023-04-13 04:35:30,15.08831381,8.19e-05,53.215,269.3662,86.3724,273.7362,1.4646e-05,-5.5e-07,0.0,0 STARLINK-4180,1 53278U 22086AN  23103.19132482 -.00000055  00000-0  14646-4 0  9998,2 53278  53.2150 269.3662 0000819  86.3724 273.7362 15.08831381 40940,6917.907,95.438,540.338,539.205,0.0
53278.0,STARLINK-4180,PAYLOAD,2023-04-14 10:47:49,15.08839427,0.0001375,53.2157,263.7182,83.2138,276.9011,5.5182e-05,5.9e-06,0.0,0 STARLINK-4180,1 53278U 22086AN  23104.44988138  .00000590  00000-0  55182-4 0  9997,2 53278  53.2157 263.7182 0001375  83.2138 276.9011 15.08839427 41132,6917.882,95.438,540.698,538.796,0.0
53278.0,STARLINK-4180,PAYLOAD,2023-04-15 13:49:23,15.08834361,0.0001445,53.2128,258.6616,93.122,266.9937,2.9788e-06,-2.41e-06,0.0,0 STARLINK-4180,1 53278U 22086AN  23105.57596399 -.00000241  00000-0  29788-5 0  9994,2 53278  53.2128 258.6616 0001445  93.1220 266.9937 15.08834361 41133,6917.898,95.438,540.762,538.763,0.0
53278.0,STARLINK-4180,PAYLOAD,2023-04-15 20:10:55,15.08845407,0.0001223,53.2147,257.4719,90.4234,269.6898,0.00016309,2.309e-05,0.0,0 STARLINK-4180,1 53278U 22086AN  23105.84091982  .00002309  00000-0  16309-3 0  9991,2 53278  53.2147 257.4719 0001223  90.4234 269.6898 15.08845407 41177,6917.864,95.437,540.575,538.883,0.0
53278.0,STARLINK-4180,PAYLOAD,2023-04-16 02:32:28,15.08836496,0.0001547,53.213,256.2827,88.0416,272.0754,6.9106e-05,8.12e-06,0.0,0 STARLINK-4180,1 53278U 22086AN  23106.10588524  .00000812  00000-0  69106-4 0  9995,2 53278  53.2130 256.2827 0001547  88.0416 272.0754 15.08836496 41212,6917.891,95.438,540.826,538.686,0.0
53278.0,STARLINK-4180,PAYLOAD,2023-04-16 13:40:09,15.088472,0.0001518,53.2154,254.2028,99.4594,260.657,0.00016173,2.287e-05,0.0,0 STARLINK-4180,1 53278U 22086AN  23106.56956017  .00002287  00000-0  16173-3 0  9994,2 53278  53.2154 254.2028 0001518  99.4594 260.6570 15.08847200 41450,6917.858,95.437,540.774,538.673,0.0
53278.0,STARLINK-4180,PAYLOAD,2023-04-16 20:01:41,15.08857502,0.0001172,53.2142,253.0113,93.012,267.1006,0.00038482,5.845e-05,0.0,0 STARLINK-4180,1 53278U 22086AN  23106.83451377  .00005845  00000-0  38482-3 0  9993,2 53278  53.2142 253.0113 0001172  93.0120 267.1006 15.08857502 41328,6917.827,95.436,540.503,538.881,0.0
53278.0,STARLINK-4180,PAYLOAD,2023-04-17 02:23:14,15.08850555,0.0001051,53.2148,251.8205,83.7515,276.3597,0.000221,3.232e-05,0.0,0 STARLINK-4180,1 53278U 22086AN  23107.09947445  .00003232  00000-0  22100-3 0  9996,2 53278  53.2148 251.8205 0001051  83.7515 276.3597 15.08850555 41364,6917.848,95.437,540.44,538.986,0.0
53278.0,STARLINK-4180,PAYLOAD,2023-04-17 13:30:57,15.0883414,0.0001451,53.2167,249.7434,97.2437,262.872,-0.0001169,-2.148e-05,0.0,0 STARLINK-4180,1 53278U 22086AN  23107.56316366 -.00002148  00000-0 -11690-3 0  9999,2 53278  53.2167 249.7434 0001451  97.2437 262.8720 15.08834140 41609,6917.898,95.438,540.767,538.76,0.0
53278.0,STARLINK-4180,PAYLOAD,2023-04-17 16:41:43,15.08836965,0.0001373,53.2166,249.1494,103.8717,256.2428,-4.9338e-05,-1.073e-05,0.0,0 STARLINK-4180,1 53278U 22086AN  23107.69564221 -.00001073  00000-0 -49338-4 0  9995,2 53278  53.2166 249.1494 0001373 103.8717 256.2428 15.08836965 41458,6917.89,95.438,540.704,538.805,0.0
53278.0,STARLINK-4180,PAYLOAD,2023-04-17 19:52:29,15.08843981,0.0001326,53.2164,248.552,88.0364,272.078,0.00011566,1.553e-05,0.0,0 STARLINK-4180,1 53278U 22086AN  23107.82811999  .00001553  00000-0  11566-3 0  9999,2 53278  53.2164 248.5520 0001326  88.0364 272.0780 15.08843981 41643,6917.868,95.437,540.651,538.816,0.0
53278.0,STARLINK-4180,PAYLOAD,2023-04-18 02:14:02,15.08833462,0.0001479,53.2151,247.3612,88.4311,271.685,-8.9945e-05,-1.719e-05,0.0,0 STARLINK-4180,1 53278U 22086AN  23108.09308487 -.00001719  00000-0 -89945-4 0  9995,2 53278  53.2151 247.3612 0001479  88.4311 271.6850 15.08833462 41683,6917.9,95.438,540.789,538.742,0.0
53278.0,STARLINK-4180,PAYLOAD,2023-04-18 18:07:53,15.08848988,0.0001408,53.2145,244.3872,87.4495,272.6659,0.00041904,6.389e-05,0.0,0 STARLINK-4180,1 53278U 22086AN  23108.75548232  .00006389  00000-0  41904-3 0  9990,2 53278  53.2145 244.3872 0001408  87.4495 272.6659 15.08848988 41783,6917.853,95.437,540.692,538.744,0.0
53278.0,STARLINK-4180,PAYLOAD,2023-04-19 08:26:22,15.08833137,5.05e-05,53.2152,241.7122,119.6794,240.4249,1.4738e-05,-5.3e-07,0.0,0 STARLINK-4180,1 53278U 22086AN  23109.35164455 -.00000053  00000-0  14738-4 0  9997,2 53278  53.2152 241.7122 0000505 119.6794 240.4249 15.08833137 41707,6917.901,95.438,540.116,539.417,0.0
53278.0,STARLINK-4180,PAYLOAD,2023-04-19 16:23:17,15.08866035,0.000116,53.2146,240.2248,95.1447,264.9677,0.0024091,0.00038289,0.0,0 STARLINK-4180,1 53278U 22086AN  23109.68284292  .00038289  00000-0  24091-2 0  9997,2 53278  53.2146 240.2248 0001160  95.1447 264.9677 15.08866035 41927,6917.801,95.436,540.468,538.863,0.0
53278.0,STARLINK-4180,PAYLOAD,2023-04-20 01:55:35,15.08845797,1.49e-05,53.2154,238.4408,191.7918,168.3071,1.7247e-05,-1.3e-07,0.0,0 STARLINK-4180,1 53278U 22086AN  23110.08027704 -.00000013  00000-0  17247-4 0  9998,2 53278  53.2154 238.4408 0000149 191.7918 168.3071 15.08845797 41810,6917.863,95.437,539.831,539.625,0.0
53278.0,STARLINK-4180,PAYLOAD,2023-04-20 08:17:09,15.08833643,9.97e-05,53.2149,237.2494,102.1479,257.9625,3.9296e-05,3.38e-06,0.0,0 STARLINK-4180,1 53278U 22086AN  23110.34524354  .00000338  00000-0  39296-4 0  9997,2 53278  53.2149 237.2494 0000997 102.1479 257.9625 15.08833643 42026,6917.9,95.438,540.455,539.075,0.0
53278.0,STARLINK-4180,PAYLOAD,2023-04-20 21:00:13,15.08868343,0.0001235,53.2145,234.8705,83.4579,276.6554,0.0022231,0.00035298,0.0,0 STARLINK-4180,1 53278U 22086AN  23110.87516134  .00035298  00000-0  22231-2 0  9994,2 53278  53.2145 234.8705 0001235  83.4579 276.6554 15.08868343 42101,6917.794,95.436,540.513,538.804,0.0
53278.0,STARLINK-4180,PAYLOAD,2023-04-21 14:29:29,15.08841077,0.0001058,53.2152,231.6007,88.2442,271.8671,0.0016884,0.00026686,0.0,0 STARLINK-4180,1 53278U 22086AN  23111.60380843  .00026686  00000-0  16884-2 0  9990,2 53278  53.2152 231.6007 0001058  88.2442 271.8671 15.08841077 42049,6917.877,95.437,540.474,539.01,0.0
53278.0,STARLINK-4180,PAYLOAD,2023-04-21 19:15:38,15.08859034,0.0001373,53.2148,230.7079,87.6434,272.4715,0.0021097,0.00033465,0.0,0 STARLINK-4180,1 53278U 22086AN  23111.80252685  .00033465  00000-0  21097-2 0  9999,2 53278  53.2148 230.7079 0001373  87.6434 272.4715 15.08859034 42247,6917.822,95.436,540.637,538.737,0.0
53278.0,STARLINK-4180,PAYLOAD,2023-04-22 07:58:43,15.08859295,0.0001703,53.2143,228.329,80.6223,279.4962,0.0015205,0.00024006,0.0,0 STARLINK-4180,1 53278U 22086AN  23112.33244818  .00024006  00000-0  15205-2 0  9992,2 53278  53.2143 228.3290 0001703  80.6223 279.4962 15.08859295 42156,6917.821,95.436,540.865,538.508,0.0
53278.0,STARLINK-4180,PAYLOAD,2023-04-22 19:06:25,15.08867039,0.0001537,53.214,226.2497,86.001,274.1158,0.0013939,0.00021982,0.0,0 STARLINK-4180,1 53278U 22086AN  23112.79612294  .00021982  00000-0  13939-2 0  9991,2 53278  53.2140 226.2497 0001537  86.0010 274.1158 15.08867039 42220,6917.798,95.436,540.726,538.599,0.0
53278.0,STARLINK-4180,PAYLOAD,2023-04-23 18:57:11,15.08845612,0.0004483,53.2154,221.7874,216.892,143.1764,0.0017079,0.00027006,0.0,0 STARLINK-4180,1 53278U 22086AN  23113.78971211  .00027006  00000-0  17079-2 0  9990,2 53278  53.2154 221.7874 0004483 216.8920 143.1764 15.08845612 42546,6917.863,95.437,542.83,536.627,0.0
53278.0,STARLINK-4180,PAYLOAD,2023-04-24 07:40:17,15.08905979,0.0001235,53.2158,219.4064,116.6757,243.4361,0.0044233,0.00070946,0.0,0 STARLINK-4180,1 53278U 22086AN  23114.31964426  .00070946  00000-0  44233-2 0  9993,2 53278  53.2158 219.4064 0001235 116.6757 243.4361 15.08905979 42452,6917.679,95.433,540.398,538.689,0.0
53278.0,STARLINK-4180,PAYLOAD,2023-04-24 23:34:06,15.08851518,0.0001175,53.2168,216.4345,117.4454,242.6657,-0.0034893,-0.0005541,0.0,0 STARLINK-4180,1 53278U 22086AN  23114.98202441 -.00055410  00000-0 -34893-2 0  9990,2 53278  53.2168 216.4345 0001175 117.4454 242.6657 15.08851518 42557,6917.845,95.437,540.523,538.897,0.0
53278.0,STARLINK-4180,PAYLOAD,2023-04-25 10:41:50,15.08809657,9.22e-05,53.2153,214.3537,122.3347,237.7734,-0.0014213,-0.00022817,0.0,0 STARLINK-4180,1 53278U 22086AN  23115.44572242 -.00022817  00000-0 -14213-2 0  9990,2 53278  53.2153 214.3537 0000922 122.3347 237.7734 15.08809657 42790,6917.973,95.439,540.476,539.2,0.0
53278.0,STARLINK-4180,PAYLOAD,2023-04-26 12:08:02,15.08818907,0.0001094,53.2142,209.5969,132.0838,228.0247,0.00065603,0.00010162,0.0,0 STARLINK-4180,1 53278U 22086AN  23116.50558459  .00010162  00000-0  65603-3 0  9990,2 53278  53.2142 209.5969 0001094 132.0838 228.0247 15.08818907 42955,6917.945,95.439,540.567,539.053,0.0
